{
  "type": "FeatureCollection",
  "name": "Livello senza titolo",
  "bbox": [0.0, 0.0, 0.0, 18.0790268, 40.3569293, 0.0],
  "features": [
    {
      "type": "Feature",
      "properties": {
        "Name": "Quatarari",
        "description": null,
        "timestamp": null,
        "begin": null,
        "end": null,
        "color": "#FF6B6B"
      },
      "bbox": [18.0586284, 40.3289228, 0.0, 18.0790268, 40.3463168, 0.0],
      "geometry": {
        "type": "Polygon",
        "coordinates": [
          [
            [18.0672679, 40.3315176, 0.0],
            [18.0704436, 40.3322046, 0.0],
            [18.0755935, 40.3344946, 0.0],
            [18.0781684, 40.3353124, 0.0],
            [18.0790268, 40.3378475, 0.0],
            [18.0772672, 40.3407098, 0.0],
            [18.0719457, 40.3422145, 0.0],
            [18.069836, 40.3428145, 0.0],
            [18.0640618, 40.3463168, 0.0],
            [18.0639308, 40.3455342, 0.0],
            [18.0638835, 40.3446886, 0.0],
            [18.0640893, 40.3441259, 0.0],
            [18.0646125, 40.3435597, 0.0],
            [18.0649318, 40.3429118, 0.0],
            [18.064798, 40.3422293, 0.0],
            [18.063994, 40.3413466, 0.0],
            [18.0628367, 40.3404153, 0.0],
            [18.0627752, 40.3402164, 0.0],
            [18.0627834, 40.3399397, 0.0],
            [18.0629608, 40.3393783, 0.0],
            [18.0631975, 40.3391386, 0.0],
            [18.0635396, 40.3389025, 0.0],
            [18.0636309, 40.338649, 0.0],
            [18.0635826, 40.3385794, 0.0],
            [18.0635719, 40.3384323, 0.0],
            [18.0635504, 40.3382851, 0.0],
            [18.063313, 40.3380272, 0.0],
            [18.0628073, 40.3378021, 0.0],
            [18.0643762, 40.3372661, 0.0],
            [18.063561, 40.3362892, 0.0],
            [18.0631586, 40.3358321, 0.0],
            [18.063011, 40.3356423, 0.0],
            [18.0628688, 40.335472, 0.0],
            [18.0627612, 40.3353844, 0.0],
            [18.0618271, 40.3358736, 0.0],
            [18.0613215, 40.3352408, 0.0],
            [18.06222, 40.3346785, 0.0],
            [18.0621932, 40.3346009, 0.0],
            [18.0618284, 40.3341961, 0.0],
            [18.0616675, 40.3341511, 0.0],
            [18.0586284, 40.3289228, 0.0],
            [18.0672679, 40.3315176, 0.0]
          ]
        ]
      }
    },
    {
      "type": "Feature",
      "properties": {
        "Name": "Immacolata",
        "description": null,
        "timestamp": null,
        "begin": null,
        "end": null,
        "color": "#4ECDC4"
      },
      "bbox": [18.0456535, 40.3432166, 0.0, 18.0596475, 40.3552894, 0.0],
      "geometry": {
        "type": "Polygon",
        "coordinates": [
          [
            [18.0456535, 40.3543737, 0.0],
            [18.045911, 40.3524114, 0.0],
            [18.04597, 40.3515856, 0.0],
            [18.0460076, 40.3512258, 0.0],
            [18.0460612, 40.3507025, 0.0],
            [18.04597, 40.3500586, 0.0],
            [18.0457956, 40.3488363, 0.0],
            [18.045734, 40.3484744, 0.0],
            [18.0457313, 40.3483947, 0.0],
            [18.0464126, 40.3480697, 0.0],
            [18.04711, 40.3477344, 0.0],
            [18.0474076, 40.3475995, 0.0],
            [18.0472346, 40.3473481, 0.0],
            [18.0475659, 40.3470966, 0.0],
            [18.0476705, 40.3468841, 0.0],
            [18.0478475, 40.3466368, 0.0],
            [18.0480245, 40.3464957, 0.0],
            [18.0497787, 40.3469822, 0.0],
            [18.0499464, 40.3464558, 0.0],
            [18.0500604, 40.3459335, 0.0],
            [18.0518333, 40.3447907, 0.0],
            [18.0527165, 40.344208, 0.0],
            [18.0535658, 40.3436672, 0.0],
            [18.0542741, 40.3432166, 0.0],
            [18.0542005, 40.3460375, 0.0],
            [18.0546833, 40.3460375, 0.0],
            [18.055201, 40.3460805, 0.0],
            [18.0564751, 40.3462052, 0.0],
            [18.0579597, 40.3462716, 0.0],
            [18.0588214, 40.3461832, 0.0],
            [18.0596475, 40.3461178, 0.0],
            [18.0581418, 40.3552894, 0.0],
            [18.0456535, 40.3543737, 0.0]
          ]
        ]
      }
    },
    {
      "type": "Feature",
      "properties": {
        "Name": "San Giovanni",
        "description": null,
        "timestamp": null,
        "begin": null,
        "end": null,
        "color": "#FFE66D"
      },
      "bbox": [18.0386148, 40.3254269, 0.0, 18.054472, 40.3451447, 0.0],
      "geometry": {
        "type": "Polygon",
        "coordinates": [
          [
            [18.0512507, 40.3451447, 0.0],
            [18.0508916, 40.3449203, 0.0],
            [18.0502401, 40.3444915, 0.0],
            [18.0494522, 40.3439937, 0.0],
            [18.0484021, 40.3433252, 0.0],
            [18.0467834, 40.3423173, 0.0],
            [18.0452988, 40.340872, 0.0],
            [18.0437968, 40.3417633, 0.0],
            [18.0426274, 40.3397803, 0.0],
            [18.0419515, 40.3387172, 0.0],
            [18.0416618, 40.3384637, 0.0],
            [18.0416457, 40.3382163, 0.0],
            [18.0415652, 40.3380016, 0.0],
            [18.0405299, 40.3356933, 0.0],
            [18.0399586, 40.3343551, 0.0],
            [18.039677, 40.3335608, 0.0],
            [18.0392585, 40.3308414, 0.0],
            [18.0386148, 40.3282896, 0.0],
            [18.0469403, 40.325705, 0.0],
            [18.054472, 40.3254269, 0.0],
            [18.0543466, 40.3334059, 0.0],
            [18.0543252, 40.3365791, 0.0],
            [18.0542715, 40.3381493, 0.0],
            [18.0541949, 40.3432565, 0.0],
            [18.0512507, 40.3451447, 0.0]
          ]
        ]
      }
    },
    {
      "type": "Feature",
      "properties": {
        "Name": "Aia",
        "description": null,
        "timestamp": null,
        "begin": null,
        "end": null,
        "color": "#95E1D3"
      },
      "bbox": [18.0319755, 40.3474122, 0.0, 18.0460612, 40.3569293, 0.0],
      "geometry": {
        "type": "Polygon",
        "coordinates": [
          [
            [18.0456481, 40.3543696, 0.0],
            [18.0416422, 40.3552615, 0.0],
            [18.0364494, 40.3569293, 0.0],
            [18.0335312, 40.3553923, 0.0],
            [18.0319755, 40.3529886, 0.0],
            [18.0340582, 40.3523972, 0.0],
            [18.0355053, 40.3517743, 0.0],
            [18.0377905, 40.3507972, 0.0],
            [18.0387078, 40.3503517, 0.0],
            [18.0395528, 40.3499368, 0.0],
            [18.0400584, 40.3496864, 0.0],
            [18.0406357, 40.3493833, 0.0],
            [18.0411336, 40.349101, 0.0],
            [18.0415917, 40.3488658, 0.0],
            [18.0420971, 40.3486091, 0.0],
            [18.0443029, 40.3474122, 0.0],
            [18.0449306, 40.3485529, 0.0],
            [18.0457286, 40.3484703, 0.0],
            [18.0460612, 40.3507025, 0.0],
            [18.0458895, 40.35244, 0.0],
            [18.0456481, 40.3543696, 0.0]
          ]
        ]
      }
    },
    {
      "type": "Feature",
      "properties": {
        "Name": "Centro",
        "description": null,
        "timestamp": null,
        "begin": null,
        "end": null,
        "color": "#F38181"
      },
      "bbox": [18.0419855, 40.3408812, 0.0, 18.0512602, 40.3485529, 0.0],
      "geometry": {
        "type": "Polygon",
        "coordinates": [
          [
            [18.0429283, 40.3481481, 0.0],
            [18.0419855, 40.3444807, 0.0],
            [18.0434714, 40.3434954, 0.0],
            [18.042758, 40.3430089, 0.0],
            [18.0428745, 40.3429345, 0.0],
            [18.0439037, 40.3423719, 0.0],
            [18.0441013, 40.3422754, 0.0],
            [18.043817, 40.3417439, 0.0],
            [18.0453083, 40.3408812, 0.0],
            [18.0467929, 40.3423265, 0.0],
            [18.0484116, 40.3433344, 0.0],
            [18.0499177, 40.3442891, 0.0],
            [18.0506064, 40.3447338, 0.0],
            [18.0512602, 40.3451539, 0.0],
            [18.0511556, 40.3452111, 0.0],
            [18.050055, 40.3459294, 0.0],
            [18.0499504, 40.3464384, 0.0],
            [18.0497733, 40.3469781, 0.0],
            [18.0480191, 40.3464916, 0.0],
            [18.0478669, 40.3466234, 0.0],
            [18.0477362, 40.346788, 0.0],
            [18.0476403, 40.3469218, 0.0],
            [18.0475659, 40.3470966, 0.0],
            [18.0472292, 40.347344, 0.0],
            [18.0474022, 40.3475954, 0.0],
            [18.0457393, 40.3483783, 0.0],
            [18.0457286, 40.3484703, 0.0],
            [18.0449306, 40.3485529, 0.0],
            [18.0443029, 40.3474122, 0.0],
            [18.0429283, 40.3481481, 0.0]
          ]
        ]
      }
    },
    {
      "type": "Feature",
      "properties": {
        "Name": "Pitrignani",
        "description": null,
        "timestamp": null,
        "begin": null,
        "end": null,
        "color": "#AA96DA"
      },
      "bbox": [18.0231766, 40.3262454, 0.0, 18.0441013, 40.3457749, 0.0],
      "geometry": {
        "type": "Polygon",
        "coordinates": [
          [
            [18.0274681, 40.3456441, 0.0],
            [18.024507, 40.3331157, 0.0],
            [18.0231766, 40.3278486, 0.0],
            [18.0244212, 40.3262454, 0.0],
            [18.0386243, 40.3282947, 0.0],
            [18.0392492, 40.3307953, 0.0],
            [18.0396595, 40.3335249, 0.0],
            [18.0400015, 40.3344133, 0.0],
            [18.0403113, 40.3351217, 0.0],
            [18.0405447, 40.3357208, 0.0],
            [18.0413065, 40.3374383, 0.0],
            [18.0416713, 40.3384688, 0.0],
            [18.0418711, 40.3386053, 0.0],
            [18.0420495, 40.3388808, 0.0],
            [18.0424384, 40.339489, 0.0],
            [18.0431841, 40.3406114, 0.0],
            [18.0441013, 40.3422754, 0.0],
            [18.042758, 40.3430089, 0.0],
            [18.0434714, 40.3434954, 0.0],
            [18.0419855, 40.3444807, 0.0],
            [18.0421023, 40.3449204, 0.0],
            [18.0413915, 40.3450247, 0.0],
            [18.0407022, 40.3450921, 0.0],
            [18.0380199, 40.3451984, 0.0],
            [18.0361585, 40.3453375, 0.0],
            [18.0333905, 40.3455132, 0.0],
            [18.0301289, 40.3457749, 0.0],
            [18.0274681, 40.3456441, 0.0]
          ]
        ]
      }
    },
    {
      "type": "Feature",
      "properties": {
        "Name": "Saraceni",
        "description": null,
        "timestamp": null,
        "begin": null,
        "end": null,
        "color": "#FCBAD3"
      },
      "bbox": [18.0274681, 40.3449204, 0.0, 18.0429283, 40.3536849, 0.0],
      "geometry": {
        "type": "Polygon",
        "coordinates": [
          [
            [18.0297666, 40.3536849, 0.0],
            [18.0274681, 40.3456482, 0.0],
            [18.0298095, 40.34577, 0.0],
            [18.0330389, 40.3456065, 0.0],
            [18.0347072, 40.3454675, 0.0],
            [18.0358821, 40.3453857, 0.0],
            [18.0370783, 40.3452712, 0.0],
            [18.0384301, 40.3452017, 0.0],
            [18.0393501, 40.3451424, 0.0],
            [18.0402058, 40.3451036, 0.0],
            [18.0408107, 40.3450815, 0.0],
            [18.0413546, 40.345001, 0.0],
            [18.0417499, 40.344973, 0.0],
            [18.0421023, 40.3449204, 0.0],
            [18.0429283, 40.3481481, 0.0],
            [18.0420971, 40.3486091, 0.0],
            [18.0410704, 40.3491465, 0.0],
            [18.0393184, 40.3500468, 0.0],
            [18.037724, 40.3508171, 0.0],
            [18.0361874, 40.351491, 0.0],
            [18.0340582, 40.3523972, 0.0],
            [18.0332857, 40.3525729, 0.0],
            [18.0297666, 40.3536849, 0.0]
          ]
        ]
      }
    },
    {
      "type": "Feature",
      "properties": {
        "Name": "Mendule Mare",
        "description": null,
        "timestamp": null,
        "begin": null,
        "end": null,
        "color": "#A8D8EA"
      },
      "bbox": [18.0541722, 40.3288637, 0.0, 18.0649305, 40.3462404, 0.0],
      "geometry": {
        "type": "Polygon",
        "coordinates": [
          [
            [18.059626, 40.3460769, 0.0],
            [18.0581259, 40.3462404, 0.0],
            [18.0567115, 40.3461812, 0.0],
            [18.0566527, 40.3452738, 0.0],
            [18.0565993, 40.3448611, 0.0],
            [18.0541883, 40.3432289, 0.0],
            [18.0541722, 40.3431471, 0.0],
            [18.0541864, 40.3426052, 0.0],
            [18.0542203, 40.3419376, 0.0],
            [18.0542542, 40.3399698, 0.0],
            [18.054281, 40.3392298, 0.0],
            [18.054273, 40.3384917, 0.0],
            [18.0543186, 40.3365679, 0.0],
            [18.0542756, 40.335423, 0.0],
            [18.0544258, 40.3288637, 0.0],
            [18.0568877, 40.3297632, 0.0],
            [18.0580786, 40.329297, 0.0],
            [18.0584273, 40.329203, 0.0],
            [18.0586123, 40.328886, 0.0],
            [18.0616514, 40.3341307, 0.0],
            [18.0618177, 40.3341899, 0.0],
            [18.0622254, 40.3346009, 0.0],
            [18.0613054, 40.3352204, 0.0],
            [18.061811, 40.3358532, 0.0],
            [18.0627022, 40.335364, 0.0],
            [18.0627451, 40.3353476, 0.0],
            [18.0628303, 40.3354162, 0.0],
            [18.0631113, 40.3357342, 0.0],
            [18.0635311, 40.3362353, 0.0],
            [18.0643601, 40.3372457, 0.0],
            [18.0627912, 40.3377817, 0.0],
            [18.0632446, 40.3379866, 0.0],
            [18.0635343, 40.3382647, 0.0],
            [18.0635625, 40.33837, 0.0],
            [18.0635585, 40.3384753, 0.0],
            [18.0636041, 40.3386, 0.0],
            [18.0635825, 40.338739, 0.0],
            [18.0635235, 40.338882, 0.0],
            [18.0631814, 40.3391182, 0.0],
            [18.0630264, 40.3392608, 0.0],
            [18.0629275, 40.3394261, 0.0],
            [18.0628029, 40.3397746, 0.0],
            [18.0627406, 40.3400469, 0.0],
            [18.0627899, 40.340314, 0.0],
            [18.063115, 40.340611, 0.0],
            [18.0641251, 40.3414628, 0.0],
            [18.0648349, 40.3422737, 0.0],
            [18.0649305, 40.342929, 0.0],
            [18.0646456, 40.3434775, 0.0],
            [18.0641276, 40.3439992, 0.0],
            [18.063835, 40.3446845, 0.0],
            [18.0638827, 40.3451801, 0.0],
            [18.0639244, 40.3457543, 0.0],
            [18.0637504, 40.3461259, 0.0],
            [18.0636383, 40.3461904, 0.0],
            [18.0630816, 40.3462212, 0.0],
            [18.0624188, 40.3460375, 0.0],
            [18.0611673, 40.3459182, 0.0],
            [18.059626, 40.3460769, 0.0]
          ]
        ]
      }
    }
  ]
}
